[{"OBJECT_NAME":"KINEIS-5B","OBJECT_ID":"2024-219E","EPOCH":"2026-03-09T22:46:51.481344","MEAN_MOTION":14.78074364,"ECCENTRICITY":0.00015209,"INCLINATION":97.9946,"RA_OF_ASC_NODE":233.4308,"ARG_OF_PERICENTER":190.4987,"MEAN_ANOMALY":169.6192,"EPHEMERIS_TYPE":0,"CLASSIFICATION_TYPE":"U","NORAD_CAT_ID":62085,"ELEMENT_SET_NO":999,"REV_AT_EPOCH":6934,"BSTAR":0.00031384185,"MEAN_MOTION_DOT":2.217e-5,"MEAN_MOTION_DDOT":0},{"OBJECT_NAME":"LYRA-3","OBJECT_ID":"2025-135BB","EPOCH":"2026-03-09T20:51:33.773760","MEAN_MOTION":14.74138825,"ECCENTRICITY":0.00196485,"INCLINATION":97.7638,"RA_OF_ASC_NODE":177.9553,"ARG_OF_PERICENTER":304.2779,"MEAN_ANOMALY":55.657,"EPHEMERIS_TYPE":0,"CLASSIFICATION_TYPE":"U","NORAD_CAT_ID":64577,"ELEMENT_SET_NO":999,"REV_AT_EPOCH":3863,"BSTAR":0.00040041163,"MEAN_MOTION_DOT":2.6e-5,"MEAN_MOTION_DDOT":0}]
